{
    "links": {
        "self": "http://www.neowsapp.com/rest/v1/neo/3102697?api_key=iIulBulltgU6a56xZRHN4H3l9WmuAYTsLGpBGhQ2"
    },
    "id": "3102697",
    "neo_reference_id": "3102697",
    "name": "(2001 XO88)",
    "designation": "2001 XO88",
    "nasa_jpl_url": "http://ssd.jpl.nasa.gov/sbdb.cgi?sstr=3102697",
    "absolute_magnitude_h": 22.0,
    "estimated_diameter": {
        "kilometers": {
            "estimated_diameter_min": 0.1058168859,
            "estimated_diameter_max": 0.2366137501
        },
        "meters": {
            "estimated_diameter_min": 105.8168859331,
            "estimated_diameter_max": 236.6137501138
        },
        "miles": {
            "estimated_diameter_min": 0.0657515442,
            "estimated_diameter_max": 0.1470249225
        },
        "feet": {
            "estimated_diameter_min": 347.1682720448,
            "estimated_diameter_max": 776.2918559233
        }
    },
    "is_potentially_hazardous_asteroid": false,
    "close_approach_data": [
        {
            "close_approach_date": "2001-11-24",
            "close_approach_date_full": "2001-Nov-24 22:13",
            "epoch_date_close_approach": 1006639980000,
            "relative_velocity": {
                "kilometers_per_second": "9.4132264051",
                "kilometers_per_hour": "33887.6150583324",
                "miles_per_hour": "21056.446145551"
            },
            "miss_distance": {
                "astronomical": "0.0527645337",
                "lunar": "20.5254036093",
                "kilometers": "7893461.853063219",
                "miles": "4904769.7582976622"
            },
            "orbiting_body": "Earth"
        },
        {
            "close_approach_date": "2168-11-30",
            "close_approach_date_full": "2168-Nov-30 10:22",
            "epoch_date_close_approach": 6277170120000,
            "relative_velocity": {
                "kilometers_per_second": "9.9893754272",
                "kilometers_per_hour": "35961.7515378466",
                "miles_per_hour": "22345.2338930581"
            },
            "miss_distance": {
                "astronomical": "0.0693707407",
                "lunar": "26.9852181323",
                "kilometers": "10377715.049042309",
                "miles": "6448413.1145855042"
            },
            "orbiting_body": "Earth"
        }
    ],
    "orbital_data": {
        "orbit_id": "11",
        "orbit_determination_date": "2017-04-06 09:15:43",
        "first_observation_date": "2001-12-14",
        "last_observation_date": "2002-01-09",
        "data_arc_in_days": 26,
        "observations_used": 30,
        "orbit_uncertainty": "7",
        "minimum_orbit_intersection": ".0558436",
        "jupiter_tisserand_invariant": "3.177",
        "epoch_osculation": "2459000.5",
        "eccentricity": ".6033801288840931",
        "semi_major_axis": "2.502587514529076",
        "inclination": "7.165540737854793",
        "ascending_node_longitude": "85.31415322568508",
        "orbital_period": "1446.046761470478",
        "perihelion_distance": ".9925759374688",
        "perihelion_argument": "317.3250973068047",
        "aphelion_distance": "4.012599091589353",
        "perihelion_time": "2459439.172440515968",
        "mean_anomaly": "250.7904759420377",
        "mean_motion": ".2489546047832628",
        "equinox": "J2000",
        "orbit_class": {
            "orbit_class_type": "APO",
            "orbit_class_description": "Near-Earth asteroid orbits which cross the Earth’s orbit similar to that of 1862 Apollo",
            "orbit_class_range": "a (semi-major axis) > 1.0 AU; q (perihelion) < 1.017 AU"
        }
    },
    "is_sentry_object": false
}